STARLINK-2581_new
1 18412C 21038BM  21326.14880336 -.00024101  00000-0 -16149-2 0  3267
2 18412  53.0542 133.0590 0001080 103.4369 158.9311 15.06420618    18
STARLINK-2581_old
1 28412C 21038BM  21325.11080627  .00001816  00000-0  12167-3 0  3250
2 28412  53.0541 137.7187 0001087 101.4377 288.7025 15.06402114    19
